1 44276U 19029AT  20054.90855454 +.00004103 +00000-0 +25238-3 0  9996
2 44276 053.0049 009.8307 0001770 034.6548 325.4558 15.12125185040971
1 44276U 19029AT  20055.23905312 -.00005242 +00000-0 -28392-3 0  9993
2 44276 053.0049 008.3322 0001782 049.9346 310.1801 15.12117024041022
1 44276U 19029AT  20055.25001157  .00032182  00000-0  18563-2 0  9998
2 44276  53.0042   8.2819 0001894  42.9493  16.9670 15.12103392 41810
1 44276U 19029AT  20055.83390548 -.00001767 +00000-0 -84309-4 0  9997
2 44276 053.0050 005.6346 0001760 050.1663 309.9482 15.12115305041113
1 44276U 19029AT  20055.91667824 -.00012864  00000-0 -72213-3 0  9990
2 44276  53.0041   5.2576 0001785  49.6921  41.3257 15.12130772 41911
1 44276U 19029AT  20056.58334491 -.00008812 +00000-0 -48910-3 0  9990
2 44276 053.0040 002.2350 0001853 048.1520 073.9885 15.12123570001767
1 44276U 19029AT  20056.83334491  .00220570  00000-0  12303-1 0  9998
2 44276  53.0038   1.1011 0001782  55.1802 348.6341 15.12076992 42059
1 44276U 19029AT  20057.25002315  .00038570  00000-0  22194-2 0  9999
2 44276  53.0039 359.2137 0002072  46.0435 107.2891 15.12103335 42118
1 44276U 19029AT  20057.50001157 -.00034104 +00000-0 -19479-2 0  9993
2 44276 053.0038 358.0790 0002019 048.1728 026.7576 15.12141357001855
1 44276U 19029AT  20058.25001157  .00045449  00000-0  26096-2 0  9991
2 44276  53.0039 354.6796 0002199  47.3440 152.6150 15.12104399 42278
1 44276U 19029AT  20058.91667824 -.00017582  00000-0 -99361-3 0  9998
2 44276  53.0039 351.6553 0002164  53.7885 177.2893 15.12142236 42372
1 44276U 19029AT  20059.53520728 +.00000207 +00000-0 +28980-4 0  9992
2 44276 053.0055 348.8521 0002351 065.1360 294.9875 15.12154311041672
1 44276U 19029AT  20059.58334491  .00115122  00000-0  65202-2 0  9996
2 44276  53.0043 348.6319 0002181  53.1161 209.1167 15.12104350 42478
1 44276U 19029AT  20059.91667824 -.00020581  00000-0 -11662-2 0  9999
2 44276  53.0042 347.1208 0002292  54.6443 223.1512 15.12149760 42520
1 44276U 19029AT  20060.00001157 -.00024512 +00000-0 -13930-2 0  9990
2 44276 053.0042 346.7435 0002357 052.9812 318.7114 15.12149117001823
1 44276U 19029AT  20060.58334491  .00124112  00000-0  70184-2 0  9992
2 44276  53.0046 344.0974 0002291  55.4428 253.5256 15.12108522 42625
1 44276U 19029AT  20060.91667824  .00004219  00000-0  25885-3 0  9992
2 44276  53.0047 342.5863 0002390  56.0722 268.4632 15.12151436 42670
1 44276U 19029AT  20061.58334491 +.00089758 +00000-0 +51042-2 0  9991
2 44276 053.0050 339.5626 0002351 057.3591 298.3650 15.12113179001761
1 44276U 19029AT  20061.91462800 -.00003176 +00000-0 -16504-3 0  9991
2 44276 053.0048 338.0619 0002463 058.4388 301.6843 15.12150529042031
1 44276U 19029AT  20061.91667824 -.00007328  00000-0 -40369-3 0  9993
2 44276  53.0051 338.0519 0002361  55.7890 315.4728 15.12129815 42825
1 44276U 19029AT  20062.58334491 +.00052497 +00000-0 +30092-2 0  9994
2 44276 053.0052 335.0281 0002304 057.7263 344.6640 15.12097818001775
1 44276U 19029AT  20062.91667824 -.00022505 +00000-0 -12776-2 0  9998
2 44276 053.0053 333.5177 0002419 057.5219 000.4153 15.12138099001761
1 44276U 19029AT  20063.58334491 +.00054678 +00000-0 +31323-2 0  9996
2 44276 053.0053 330.4938 0002325 060.0407 029.0360 15.12101009001764
1 44276U 19029AT  20063.89748398 +.00000666 +00000-0 +55321-4 0  9999
2 44276 053.0046 329.0706 0002152 075.7500 284.3729 15.12128138042333
1 44276U 19029AT  20063.91667824 -.00023645  00000-0 -13433-2 0  9996
2 44276  53.0053 328.9834 0002450  59.6776  44.9519 15.12140462 43127
1 44276U 19029AT  20064.58334491 +.00061895 +00000-0 +35398-2 0  9992
2 44276 053.0051 325.9594 0002356 062.7860 072.9894 15.12102297001764
1 44276U 19029AT  20064.91667824 -.00032169  00000-0 -18358-2 0  9999
2 44276  53.0051 324.4492 0002493  62.0681  89.2657 15.12143003 43271
1 44276U 19029AT  20065.25001157 +.00004802 +00000-0 +29240-3 0  9992
2 44276 053.0048 322.9381 0002544 059.5860 107.3187 15.12130711001764
1 44276U 19029AT  20065.50001157  .00143475  00000-0  80914-2 0  9994
2 44276  53.0049 321.8033 0002373  65.1760  23.4176 15.12096491 43363
1 44276U 19029AT  20065.83334491 -.00031794  00000-0 -18137-2 0  9990
2 44276  53.0049 320.2925 0002513  65.8840  38.2650 15.12150496 43411
1 44276U 19029AT  20065.91667824 -.00027982 +00000-0 -15937-2 0  9997
2 44276 053.0047 319.9152 0002549 064.3773 133.6682 15.12141727001768
1 44276U 19029AT  20066.58334491  .00059666  00000-0  34135-2 0  9995
2 44276  53.0043 316.8910 0002506  68.2748 160.9232 15.12107267 43536
1 44276U 19029AT  20066.83335648 -.00033353  00000-0 -19039-2 0  9991
2 44276  53.0045 315.7584 0002598  67.8912  83.0378 15.12149912 43564
1 44276U 19029AT  20066.91667824 -.00015850  00000-0 -89385-3 0  9998
2 44276  53.0043 315.3812 0002631  66.2833 178.4810 15.12138798 43587
1 44276U 19029AT  20067.50001157  .00133810  00000-0  75575-2 0  9995
2 44276  53.0041 312.7349 0002534  68.7216 113.3092 15.12097200 43666
1 44276U 19029AT  20067.91667824 -.00009117 +00000-0 -50637-3 0  9996
2 44276 053.0039 310.8470 0002725 067.6423 223.8479 15.12138879001766
1 44276U 19029AT  20068.16667824  .00027718  00000-0  16012-2 0  9997
2 44276  53.0039 309.7138 0002742  65.4309 147.7451 15.12124759 43775
1 44276U 19029AT  20068.66667824 +.00123832 +00000-0 +70021-2 0  9996
2 44276 053.0039 307.4448 0002676 072.3757 344.1668 15.12112022001782
1 44276U 19029AT  20069.16667824  .00017333  00000-0  10097-2 0  9997
2 44276  53.0037 305.1793 0002684  65.8023 194.0692 15.12104188 43925
1 44276U 19029AT  20069.41667824 +.00001610 +00000-0 +10951-3 0  9996
2 44276 053.0040 304.0442 0002610 069.8879 111.6451 15.12107931001796
1 44276U 19029AT  20069.91214190 -.00002168 +00000-0 -10731-3 0  9992
2 44276 053.0035 301.7978 0002304 095.0185 265.1069 15.12117330043249
1 44276U 19029AT  20069.91667824 -.00018668  00000-0 -10568-2 0  9997
2 44276  53.0038 301.7782 0002793  68.7628 316.0908 15.12119933 44033
1 44276U 19029AT  20070.25001157 +.00087746 +00000-0 +49921-2 0  9993
2 44276 053.0038 300.2662 0002703 068.1299 332.2704 15.12108782001771
1 44276U 19029AT  20070.75001157 -.00022942  00000-0 -13030-2 0  9999
2 44276  53.0041 297.9985 0002773  72.9030 170.8254 15.12132283 44167
1 44276U 19029AT  20070.90357832 +.00000086 +00000-0 +22036-4 0  9991
2 44276 053.0039 297.3017 0002468 091.9845 268.1428 15.12101386043398
1 44276U 19029AT  20073.91667824 +.00003755 +00000-0 +23248-3 0  9991
2 44276 053.0045 283.6395 0002857 076.5960 134.9852 15.12121750001764
1 44276U 19029AT  20074.25001157 -.00039088  00000-0 -22362-2 0  9995
2 44276  53.0044 282.1269 0002768  79.1177 148.0229 15.12146008 44693
1 44276U 19029AT  20074.91667824  .00010915  00000-0  64187-3 0  9995
2 44276  53.0044 279.1051 0002703  78.5771 179.7472 15.12154114 44799
1 44276U 19029AT  20075.91667824  .00113068  00000-0  64075-2 0  9994
2 44276  53.0039 274.5708 0002534  79.7594 225.3045 15.12095764 44945
1 44276U 19029AT  20076.25001157 -.00026303  00000-0 -14969-2 0  9997
2 44276  53.0037 273.0582 0002464  83.4478 237.1723 15.12138121 44996
1 44276U 19029AT  20076.58334491  .00143648  00000-0  80994-2 0  9994
2 44276  53.0037 271.5464 0002487  87.0468 249.1404 15.12103328 45049
1 44276U 19029AT  20076.85214262 -.00002550 +00000-0 -12930-3 0  9991
2 44276 053.0029 270.3281 0002545 091.0715 269.0567 15.12105025044292
1 44276U 19029AT  20076.91667824  .00028372  00000-0  16390-2 0  9995
2 44276  53.0035 270.0367 0002552  82.1912 269.5710 15.12112230 45099
1 44276U 19029AT  20077.51306913 -.00002512 +00000-0 -12696-3 0  9997
2 44276 053.0031 267.3307 0002620 082.4512 277.6776 15.12139806044395
1 44276U 19029AT  20077.91667824  .00039047  00000-0  22460-2 0  9992
2 44276  53.0031 265.5023 0002558  83.3244 315.1425 15.12110224 45249
1 44276U 19029AT  20078.25001157 +.00045280 +00000-0 +25987-2 0  9994
2 44276 053.0031 263.9893 0002485 086.6556 327.3763 15.12122463001775
1 44276U 19029AT  20078.58334491  .00137346  00000-0  77496-2 0  9997
2 44276  53.0029 262.4778 0002524  88.5555 341.0426 15.12112616 45341
1 44276U 19029AT  20078.91667824  .00037567  00000-0  21619-2 0  9993
2 44276  53.0029 260.9678 0002562  84.0686   1.1119 15.12111758 45395
1 44276U 19029AT  20079.83335648  .00006009  00000-0  36152-3 0  9997
2 44276  53.0030 256.8108 0002617  85.4198 312.6537 15.12130711 45533
1 44276U 19029AT  20079.91667824 +.00043891 +00000-0 +25205-2 0  9996
2 44276 053.0030 256.4331 0002565 084.6456 047.2635 15.12114641001768
1 44276U 19029AT  20080.50001157  .00265830  00000-0  14724-1 0  9996
2 44276  53.0031 253.7860 0002504  90.5131 338.6592 15.12091483 45636
1 44276U 19029AT  20080.66667824 -.00026123  00000-0 -14861-2 0  9997
2 44276  53.0031 253.0312 0002554  88.9189 168.0376 15.12147341 45663
1 44276U 19029AT  20082.25001157  .00151142  00000-0  85172-2 0  9996
2 44276  53.0037 245.8505 0002319  91.4396 149.3962 15.12081851 45903
1 44276U 19029AT  20082.58334491  .00165509  00000-0  93031-2 0  9997
2 44276  53.0036 244.3397 0002355  91.9374 164.4471 15.12094770 45958
1 44276U 19029AT  20082.66667824  .00023099  00000-0  13382-2 0  9993
2 44276  53.0035 243.9623 0002376  91.4263 258.8473 15.12121964 45966
1 44276U 19029AT  20083.91667824  .00027821  00000-0  16076-2 0  9992
2 44276  53.0034 238.2946 0002247  92.2275 226.4086 15.12112585 46151
1 44276U 19029AT  20084.58526104 -.00003326 +00000-0 -17385-3 0  9992
2 44276 053.0029 235.2608 0002890 120.0050 240.1228 15.12109324045463
1 44276U 19029AT  20084.91667824  .00019709  00000-0  11449-2 0  9998
2 44276  53.0032 233.7601 0002181  94.9890 270.3450 15.12119568 46304
1 44276U 19029AT  20085.16667824  .00297597  00000-0  16418-1 0  9999
2 44276  53.0034 232.6252 0002162  96.4698 190.5481 15.12069122 46349
1 44276U 19029AT  20085.58334491  .00008542  00000-0  50644-3 0  9997
2 44276  53.0033 230.7367 0002220 100.3372 296.1282 15.12136342 46401
1 44276U 19029AT  20086.83334491  .00040372  00000-0  23210-2 0  9991
2 44276  53.0028 225.0695 0002130  98.8988 265.9724 15.12114216 46591
